[
    {
        "Altitude(m)": 570588.0265135395,
        "Argument of Periapsis(deg)": 0.013245982221427002,
        "Eccentricity": 0.0,
        "Inclination(deg)": 53.0,
        "Latitude(deg)": -49.93592857679252,
        "Longitude(deg)": -88.56279934518955,
        "Mean Anomaly(deg)": -107.08951426484484,
        "RAAN(deg)": 129.98028673705602,
        "Satellite Name": "Starlink Shell 1 586",
        "Satellite Number": 586,
        "Semi-Major Axis(m)": 6931778.249405717,
        "Time(s)": 380
    },
    {
        "Altitude(m)": 570676.6418872139,
        "Argument of Periapsis(deg)": 0.013594560700938237,
        "Eccentricity": 0.0,
        "Inclination(deg)": 53.0,
        "Latitude(deg)": -50.15898910479932,
        "Longitude(deg)": -87.69754411441187,
        "Mean Anomaly(deg)": -106.46268306128815,
        "RAAN(deg)": 129.97976796697856,
        "Satellite Name": "Starlink Shell 1 586",
        "Satellite Number": 586,
        "Semi-Major Axis(m)": 6931778.249405717,
        "Time(s)": 390
    },
    {
        "Altitude(m)": 570762.2421315114,
        "Argument of Periapsis(deg)": 0.013943139180449475,
        "Eccentricity": 0.0,
        "Inclination(deg)": 53.0,
        "Latitude(deg)": -50.37490120600988,
        "Longitude(deg)": -86.82396650798364,
        "Mean Anomaly(deg)": -105.83585185773136,
        "RAAN(deg)": 129.97924919690107,
        "Satellite Name": "Starlink Shell 1 586",
        "Satellite Number": 586,
        "Semi-Major Axis(m)": 6931778.249405717,
        "Time(s)": 400
    },
    {
        "Altitude(m)": 570844.7931851088,
        "Argument of Periapsis(deg)": 0.014291717659960712,
        "Eccentricity": 0.0,
        "Inclination(deg)": 53.0,
        "Latitude(deg)": -50.58354601433534,
        "Longitude(deg)": -85.94220368858241,
        "Mean Anomaly(deg)": -105.20902065417465,
        "RAAN(deg)": 129.97873042682363,
        "Satellite Name": "Starlink Shell 1 586",
        "Satellite Number": 586,
        "Semi-Major Axis(m)": 6931778.249405717,
        "Time(s)": 410
    },
    {
        "Altitude(m)": 570924.2621890454,
        "Argument of Periapsis(deg)": 0.014640296139471948,
        "Eccentricity": 0.0,
        "Inclination(deg)": 53.0,
        "Latitude(deg)": -50.78480620267371,
        "Longitude(deg)": -85.0524088717056,
        "Mean Anomaly(deg)": -104.5821894506179,
        "RAAN(deg)": 129.97821165674614,
        "Satellite Name": "Starlink Shell 1 586",
        "Satellite Number": 586,
        "Semi-Major Axis(m)": 6931778.249405717,
        "Time(s)": 420
    },
    {
        "Altitude(m)": 571000.6175010317,
        "Argument of Periapsis(deg)": 0.014988874618983185,
        "Eccentricity": 0.0,
        "Inclination(deg)": 53.0,
        "Latitude(deg)": -50.97856624220121,
        "Longitude(deg)": -84.15475107261163,
        "Mean Anomaly(deg)": -103.95535824706123,
        "RAAN(deg)": 129.97769288666868,
        "Satellite Name": "Starlink Shell 1 586",
        "Satellite Number": 586,
        "Semi-Major Axis(m)": 6931778.249405717,
        "Time(s)": 430
    },
    {
        "Altitude(m)": 571073.8287091762,
        "Argument of Periapsis(deg)": 0.015337453098494424,
        "Eccentricity": 0.0,
        "Inclination(deg)": 53.0,
        "Latitude(deg)": -51.164712668314635,
        "Longitude(deg)": -83.24941479723007,
        "Mean Anomaly(deg)": -103.32852704350458,
        "RAAN(deg)": 129.9771741165912,
        "Satellite Name": "Starlink Shell 1 586",
        "Satellite Number": 586,
        "Semi-Major Axis(m)": 6931778.249405717,
        "Time(s)": 440
    },
    {
        "Altitude(m)": 571143.8666452048,
        "Argument of Periapsis(deg)": 0.01568603157800566,
        "Eccentricity": 0.0,
        "Inclination(deg)": 53.0,
        "Latitude(deg)": -51.34313435218896,
        "Longitude(deg)": -82.33660118505765,
        "Mean Anomaly(deg)": -102.70169583994777,
        "RAAN(deg)": 129.97665534651372,
        "Satellite Name": "Starlink Shell 1 586",
        "Satellite Number": 586,
        "Semi-Major Axis(m)": 6931778.249405717,
        "Time(s)": 450
    },
    {
        "Altitude(m)": 571210.7033971393,
        "Argument of Periapsis(deg)": 0.0160346100575169,
        "Eccentricity": 0.0,
        "Inclination(deg)": 53.0,
        "Latitude(deg)": -51.51372277680195,
        "Longitude(deg)": -81.41652757364409,
        "Mean Anomaly(deg)": -102.07486463639111,
        "RAAN(deg)": 129.97613657643623,
        "Satellite Name": "Starlink Shell 1 586",
        "Satellite Number": 586,
        "Semi-Major Axis(m)": 6931778.249405717,
        "Time(s)": 460
    },
    {
        "Altitude(m)": 571274.312321384,
        "Argument of Periapsis(deg)": 0.016383188537028134,
        "Eccentricity": 0.0,
        "Inclination(deg)": 53.0,
        "Latitude(deg)": -51.67637231616785,
        "Longitude(deg)": -80.48942699319684,
        "Mean Anomaly(deg)": -101.44803343283439,
        "RAAN(deg)": 129.9756178063588,
        "Satellite Name": "Starlink Shell 1 586",
        "Satellite Number": 586,
        "Semi-Major Axis(m)": 6931778.249405717,
        "Time(s)": 470
    },
    {
        "Altitude(m)": 571334.6680543176,
        "Argument of Periapsis(deg)": 0.01673176701653937,
        "Eccentricity": 0.0,
        "Inclination(deg)": 53.0,
        "Latitude(deg)": -51.83098051641577,
        "Longitude(deg)": -79.55554910021458,
        "Mean Anomaly(deg)": -100.82120222927765,
        "RAAN(deg)": 129.9750990362813,
        "Satellite Name": "Starlink Shell 1 586",
        "Satellite Number": 586,
        "Semi-Major Axis(m)": 6931778.249405717,
        "Time(s)": 480
    },
    {
        "Altitude(m)": 571391.7465232704,
        "Argument of Periapsis(deg)": 0.017080345496050607,
        "Eccentricity": 0.0,
        "Inclination(deg)": 53.0,
        "Latitude(deg)": -51.977448377252934,
        "Longitude(deg)": -78.61515952087842,
        "Mean Anomaly(deg)": -100.19437102572098,
        "RAAN(deg)": 129.97458026620384,
        "Satellite Name": "Starlink Shell 1 586",
        "Satellite Number": 586,
        "Semi-Major Axis(m)": 6931778.249405717,
        "Time(s)": 490
    },
    {
        "Altitude(m)": 571445.5249569791,
        "Argument of Periapsis(deg)": 0.017428923975561842,
        "Eccentricity": 0.0,
        "Inclination(deg)": 53.0,
        "Latitude(deg)": -52.115680632264926,
        "Longitude(deg)": -77.66853911409675,
        "Mean Anomaly(deg)": -99.56753982216424,
        "RAAN(deg)": 129.97406149612635,
        "Satellite Name": "Starlink Shell 1 586",
        "Satellite Number": 586,
        "Semi-Major Axis(m)": 6931778.249405717,
        "Time(s)": 500
    },
    {
        "Altitude(m)": 571495.9818954534,
        "Argument of Periapsis(deg)": 0.01777750245507308,
        "Eccentricity": 0.0,
        "Inclination(deg)": 53.0,
        "Latitude(deg)": -52.24558602642931,
        "Longitude(deg)": -76.71598466471238,
        "Mean Anomaly(deg)": -98.94070861860753,
        "RAAN(deg)": 129.9735427260489,
        "Satellite Name": "Starlink Shell 1 586",
        "Satellite Number": 586,
        "Semi-Major Axis(m)": 6931778.249405717,
        "Time(s)": 510
    },
    {
        "Altitude(m)": 571543.0971992713,
        "Argument of Periapsis(deg)": 0.018126080934584315,
        "Eccentricity": 0.0,
        "Inclination(deg)": 53.0,
        "Latitude(deg)": -52.367077589166314,
        "Longitude(deg)": -75.75780797934209,
        "Mean Anomaly(deg)": -98.31387741505078,
        "RAAN(deg)": 129.9730239559714,
        "Satellite Name": "Starlink Shell 1 586",
        "Satellite Number": 586,
        "Semi-Major Axis(m)": 6931778.249405717,
        "Time(s)": 520
    },
    {
        "Altitude(m)": 571586.852058301,
        "Argument of Periapsis(deg)": 0.018474659414095554,
        "Eccentricity": 0.0,
        "Inclination(deg)": 53.0,
        "Latitude(deg)": -52.48007290113113,
        "Longitude(deg)": -74.79433489731997,
        "Mean Anomaly(deg)": -97.68704621149405,
        "RAAN(deg)": 129.97250518589397,
        "Satellite Name": "Starlink Shell 1 586",
        "Satellite Number": 586,
        "Semi-Major Axis(m)": 6931778.249405717,
        "Time(s)": 530
    },
    {
        "Altitude(m)": 571627.2289998666,
        "Argument of Periapsis(deg)": 0.018823237893606792,
        "Eccentricity": 0.0,
        "Inclination(deg)": 53.0,
        "Latitude(deg)": -52.584494353149644,
        "Longitude(deg)": -73.82590572810778,
        "Mean Anomaly(deg)": -97.0602150079374,
        "RAAN(deg)": 129.97198641581647,
        "Satellite Name": "Starlink Shell 1 586",
        "Satellite Number": 586,
        "Semi-Major Axis(m)": 6931778.249405717,
        "Time(s)": 540
    },
    {
        "Altitude(m)": 571664.2118963099,
        "Argument of Periapsis(deg)": 0.019171816373118027,
        "Eccentricity": 0.0,
        "Inclination(deg)": 53.0,
        "Latitude(deg)": -52.680269395293976,
        "Longitude(deg)": -72.85287409204014,
        "Mean Anomaly(deg)": -96.43338380438061,
        "RAAN(deg)": 129.971467645739,
        "Satellite Name": "Starlink Shell 1 586",
        "Satellite Number": 586,
        "Semi-Major Axis(m)": 6931778.249405717,
        "Time(s)": 550
    },
    {
        "Altitude(m)": 571697.785971958,
        "Argument of Periapsis(deg)": 0.019520394852629266,
        "Eccentricity": 0.0,
        "Inclination(deg)": 53.0,
        "Latitude(deg)": -52.76733077451342,
        "Longitude(deg)": -71.87560567740881,
        "Mean Anomaly(deg)": -95.80655260082396,
        "RAAN(deg)": 129.97094887566152,
        "Satellite Name": "Starlink Shell 1 586",
        "Satellite Number": 586,
        "Semi-Major Axis(m)": 6931778.249405717,
        "Time(s)": 560
    }
]